{
    "links": {
        "self": "http://www.neowsapp.com/rest/v1/neo/3838825?api_key=iIulBulltgU6a56xZRHN4H3l9WmuAYTsLGpBGhQ2"
    },
    "id": "3838825",
    "neo_reference_id": "3838825",
    "name": "(2019 DC)",
    "designation": "2019 DC",
    "nasa_jpl_url": "http://ssd.jpl.nasa.gov/sbdb.cgi?sstr=3838825",
    "absolute_magnitude_h": 26.2,
    "estimated_diameter": {
        "kilometers": {
            "estimated_diameter_min": 0.0152951935,
            "estimated_diameter_max": 0.0342010925
        },
        "meters": {
            "estimated_diameter_min": 15.2951935344,
            "estimated_diameter_max": 34.201092472
        },
        "miles": {
            "estimated_diameter_min": 0.0095039897,
            "estimated_diameter_max": 0.021251567
        },
        "feet": {
            "estimated_diameter_min": 50.1810827555,
            "estimated_diameter_max": 112.2083122258
        }
    },
    "is_potentially_hazardous_asteroid": false,
    "close_approach_data": [
        {
            "close_approach_date": "2019-03-05",
            "close_approach_date_full": "2019-Mar-05 12:00",
            "epoch_date_close_approach": 1551787200000,
            "relative_velocity": {
                "kilometers_per_second": "9.2392068099",
                "kilometers_per_hour": "33261.1445157429",
                "miles_per_hour": "20667.1817131292"
            },
            "miss_distance": {
                "astronomical": "0.0279464709",
                "lunar": "10.8711771801",
                "kilometers": "4180732.520656983",
                "miles": "2597786.7273650454"
            },
            "orbiting_body": "Earth"
        }
    ],
    "orbital_data": {
        "orbit_id": "6",
        "orbit_determination_date": "2019-03-11 07:55:19",
        "first_observation_date": "2019-02-26",
        "last_observation_date": "2019-03-05",
        "data_arc_in_days": 7,
        "observations_used": 37,
        "orbit_uncertainty": "8",
        "minimum_orbit_intersection": ".0255266",
        "jupiter_tisserand_invariant": "3.130",
        "epoch_osculation": "2458542.5",
        "eccentricity": ".6105479753136697",
        "semi_major_axis": "2.572585973154247",
        "inclination": "6.284221294952212",
        "ascending_node_longitude": "338.2736081609514",
        "orbital_period": "1507.138877631241",
        "perihelion_distance": "1.001898815924575",
        "perihelion_argument": "201.8328444895319",
        "aphelion_distance": "4.143273130383919",
        "perihelion_time": "2458560.339576082752",
        "mean_anomaly": "355.7387819496207",
        "mean_motion": ".2388631899442535",
        "equinox": "J2000",
        "orbit_class": {
            "orbit_class_type": "APO",
            "orbit_class_description": "Near-Earth asteroid orbits which cross the Earth’s orbit similar to that of 1862 Apollo",
            "orbit_class_range": "a (semi-major axis) > 1.0 AU; q (perihelion) < 1.017 AU"
        }
    },
    "is_sentry_object": false
}